{
  "type": "FeatureCollection",
  "features": [
    {
      "type": "Feature",
      "properties": {
        "norad_id": 25590,
        "name": "COSMOS 2361",
        "group": "musson",
        "lat": 66.10436251072605,
        "lon": 1.14080389828549,
        "alt_km": 1002.1727030575184,
        "timestamp": "2025-12-11T15:53:39.812220+00:00",
        "meta_object_name": "COSMOS 2361",
        "meta_object_id": "1998-076A",
        "meta_epoch": "2025-12-11T01:53:57.122304",
        "meta_mean_motion": 13.73217239,
        "meta_eccentricity": 0.00300487,
        "meta_inclination": 82.9339,
        "meta_ra_of_asc_node": 345.3147,
        "meta_arg_of_pericenter": 270.4231,
        "meta_mean_anomaly": 155.4616,
        "meta_ephemeris_type": 0,
        "meta_classification_type": "U",
        "meta_norad_cat_id": 25590,
        "meta_element_set_no": 999,
        "meta_rev_at_epoch": 35088,
        "meta_bstar": 8.6975318e-05,
        "meta_mean_motion_dot": 9.6e-07,
        "meta_mean_motion_ddot": 0,
        "tle_line1": "1 25590U 98076A   25345.07913336  .00000096  00000+0  86975-4 0  9995",
        "tle_line2": "2 25590  82.9339 345.3147 0030048 270.4231 155.4616 13.73217239350888"
      },
      "geometry": {
        "type": "Point",
        "coordinates": [
          1.14080389828549,
          66.10436251072605
        ]
      }
    },
    {
      "type": "Feature",
      "properties": {
        "norad_id": 26818,
        "name": "COSMOS 2378",
        "group": "musson",
        "lat": 43.7752792024064,
        "lon": 173.69256200534502,
        "alt_km": 973.7007917596584,
        "timestamp": "2025-12-11T15:53:39.812242+00:00",
        "meta_object_name": "COSMOS 2378",
        "meta_object_id": "2001-023A",
        "meta_epoch": "2025-12-11T03:19:42.892032",
        "meta_mean_motion": 13.74141811,
        "meta_eccentricity": 0.00323143,
        "meta_inclination": 82.9273,
        "meta_ra_of_asc_node": 0.9122,
        "meta_arg_of_pericenter": 209.4154,
        "meta_mean_anomaly": 218.0387,
        "meta_ephemeris_type": 0,
        "meta_classification_type": "U",
        "meta_norad_cat_id": 26818,
        "meta_element_set_no": 999,
        "meta_rev_at_epoch": 22901,
        "meta_bstar": 5.7443799e-05,
        "meta_mean_motion_dot": 6.9e-07,
        "meta_mean_motion_ddot": 0,
        "tle_line1": "1 26818U 01023A   25345.13869088  .00000069  00000+0  57444-4 0  9995",
        "tle_line2": "2 26818  82.9273   0.9122 0032314 209.4154 218.0387 13.74141811229014"
      },
      "geometry": {
        "type": "Point",
        "coordinates": [
          173.69256200534502,
          43.7752792024064
        ]
      }
    },
    {
      "type": "Feature",
      "properties": {
        "norad_id": 27436,
        "name": "COSMOS 2389",
        "group": "musson",
        "lat": -21.410733275159245,
        "lon": -54.998794887601825,
        "alt_km": 983.2023722062195,
        "timestamp": "2025-12-11T15:53:39.812255+00:00",
        "meta_object_name": "COSMOS 2389",
        "meta_object_id": "2002-026A",
        "meta_epoch": "2025-12-11T07:48:09.511776",
        "meta_mean_motion": 13.75154374,
        "meta_eccentricity": 0.00476546,
        "meta_inclination": 82.9501,
        "meta_ra_of_asc_node": 308.0319,
        "meta_arg_of_pericenter": 64.5816,
        "meta_mean_anomaly": 46.3218,
        "meta_ephemeris_type": 0,
        "meta_classification_type": "U",
        "meta_norad_cat_id": 27436,
        "meta_element_set_no": 999,
        "meta_rev_at_epoch": 18129,
        "meta_bstar": 9.0338393e-05,
        "meta_mean_motion_dot": 1.03e-06,
        "meta_mean_motion_ddot": 0,
        "tle_line1": "1 27436U 02026A   25345.32511009  .00000103  00000+0  90338-4 0  9992",
        "tle_line2": "2 27436  82.9501 308.0319 0047654  64.5816  46.3218 13.75154374181294"
      },
      "geometry": {
        "type": "Point",
        "coordinates": [
          -54.998794887601825,
          -21.410733275159245
        ]
      }
    },
    {
      "type": "Feature",
      "properties": {
        "norad_id": 27818,
        "name": "COSMOS 2398",
        "group": "musson",
        "lat": -56.96886904577461,
        "lon": -97.48201802011069,
        "alt_km": 1021.8438510677261,
        "timestamp": "2025-12-11T15:53:39.812267+00:00",
        "meta_object_name": "COSMOS 2398",
        "meta_object_id": "2003-023A",
        "meta_epoch": "2025-12-11T06:12:35.381376",
        "meta_mean_motion": 13.72385544,
        "meta_eccentricity": 0.00325265,
        "meta_inclination": 82.9484,
        "meta_ra_of_asc_node": 273.7896,
        "meta_arg_of_pericenter": 115.7594,
        "meta_mean_anomaly": 354.1881,
        "meta_ephemeris_type": 0,
        "meta_classification_type": "U",
        "meta_norad_cat_id": 27818,
        "meta_element_set_no": 999,
        "meta_rev_at_epoch": 12796,
        "meta_bstar": 9.7367873e-05,
        "meta_mean_motion_dot": 1.05e-06,
        "meta_mean_motion_ddot": 0,
        "tle_line1": "1 27818U 03023A   25345.25874284  .00000105  00000+0  97368-4 0  9995",
        "tle_line2": "2 27818  82.9484 273.7896 0032526 115.7594 354.1881 13.72385544127962"
      },
      "geometry": {
        "type": "Point",
        "coordinates": [
          -97.48201802011069,
          -56.96886904577461
        ]
      }
    },
    {
      "type": "Feature",
      "properties": {
        "norad_id": 28380,
        "name": "COSMOS 2407",
        "group": "musson",
        "lat": 55.88681521322459,
        "lon": 23.18104566047626,
        "alt_km": 959.3165408461464,
        "timestamp": "2025-12-11T15:53:39.812278+00:00",
        "meta_object_name": "COSMOS 2407",
        "meta_object_id": "2004-028A",
        "meta_epoch": "2025-12-11T03:38:19.095360",
        "meta_mean_motion": 13.7631341,
        "meta_eccentricity": 0.00403813,
        "meta_inclination": 82.9609,
        "meta_ra_of_asc_node": 214.0685,
        "meta_arg_of_pericenter": 59.155,
        "meta_mean_anomaly": 55.0944,
        "meta_ephemeris_type": 0,
        "meta_classification_type": "U",
        "meta_norad_cat_id": 28380,
        "meta_element_set_no": 999,
        "meta_rev_at_epoch": 7401,
        "meta_bstar": 6.7057344e-05,
        "meta_mean_motion_dot": 8.1e-07,
        "meta_mean_motion_ddot": 0,
        "tle_line1": "1 28380U 04028A   25345.15160990  .00000081  00000+0  67057-4 0  9992",
        "tle_line2": "2 28380  82.9609 214.0685 0040381  59.1550  55.0944 13.76313410 74012"
      },
      "geometry": {
        "type": "Point",
        "coordinates": [
          23.18104566047626,
          55.88681521322459
        ]
      }
    },
    {
      "type": "Feature",
      "properties": {
        "norad_id": 28521,
        "name": "COSMOS 2414",
        "group": "musson",
        "lat": -18.577573512985424,
        "lon": -176.9091684756594,
        "alt_km": 969.2384261119196,
        "timestamp": "2025-12-11T15:53:39.812288+00:00",
        "meta_object_name": "COSMOS 2414",
        "meta_object_id": "2005-002A",
        "meta_epoch": "2025-12-11T00:24:46.967328",
        "meta_mean_motion": 13.87902562,
        "meta_eccentricity": 0.00407948,
        "meta_inclination": 82.9493,
        "meta_ra_of_asc_node": 185.9626,
        "meta_arg_of_pericenter": 144.5067,
        "meta_mean_anomaly": 215.8823,
        "meta_ephemeris_type": 0,
        "meta_classification_type": "U",
        "meta_norad_cat_id": 28521,
        "meta_element_set_no": 999,
        "meta_rev_at_epoch": 5771,
        "meta_bstar": 6.7585353e-05,
        "meta_mean_motion_dot": 9.7e-07,
        "meta_mean_motion_ddot": 0,
        "tle_line1": "1 28521U 05002A   25345.01721027  .00000097  00000+0  67585-4 0  9994",
        "tle_line2": "2 28521  82.9493 185.9626 0040794 144.5067 215.8823 13.87902562 57715"
      },
      "geometry": {
        "type": "Point",
        "coordinates": [
          -176.9091684756594,
          -18.577573512985424
        ]
      }
    },
    {
      "type": "Feature",
      "properties": {
        "norad_id": 32052,
        "name": "COSMOS 2429",
        "group": "musson",
        "lat": 14.455279394718055,
        "lon": 162.28320713494037,
        "alt_km": 998.3244893145693,
        "timestamp": "2025-12-11T15:53:39.812299+00:00",
        "meta_object_name": "COSMOS 2429",
        "meta_object_id": "2007-038A",
        "meta_epoch": "2025-12-11T06:21:54.074880",
        "meta_mean_motion": 13.75149189,
        "meta_eccentricity": 0.00393133,
        "meta_inclination": 82.9803,
        "meta_ra_of_asc_node": 344.3959,
        "meta_arg_of_pericenter": 41.8792,
        "meta_mean_anomaly": 318.536,
        "meta_ephemeris_type": 0,
        "meta_classification_type": "U",
        "meta_norad_cat_id": 32052,
        "meta_element_set_no": 999,
        "meta_rev_at_epoch": 91582,
        "meta_bstar": 8.1682485e-05,
        "meta_mean_motion_dot": 9.4e-07,
        "meta_mean_motion_ddot": 0,
        "tle_line1": "1 32052U 07038A   25345.26520920  .00000094  00000+0  81682-4 0  9996",
        "tle_line2": "2 32052  82.9803 344.3959 0039313  41.8792 318.5360 13.75149189915820"
      },
      "geometry": {
        "type": "Point",
        "coordinates": [
          162.28320713494037,
          14.455279394718055
        ]
      }
    },
    {
      "type": "Feature",
      "properties": {
        "norad_id": 35635,
        "name": "COSMOS 2454",
        "group": "musson",
        "lat": 23.41701130371937,
        "lon": 172.53161042616296,
        "alt_km": 919.2950047642162,
        "timestamp": "2025-12-11T15:53:39.812309+00:00",
        "meta_object_name": "COSMOS 2454",
        "meta_object_id": "2009-039A",
        "meta_epoch": "2025-12-11T06:14:35.647584",
        "meta_mean_motion": 13.89928314,
        "meta_eccentricity": 0.0020478,
        "meta_inclination": 82.9554,
        "meta_ra_of_asc_node": 169.7667,
        "meta_arg_of_pericenter": 77.7005,
        "meta_mean_anomaly": 95.1833,
        "meta_ephemeris_type": 0,
        "meta_classification_type": "U",
        "meta_norad_cat_id": 35635,
        "meta_element_set_no": 999,
        "meta_rev_at_epoch": 83129,
        "meta_bstar": 7.3613666e-05,
        "meta_mean_motion_dot": 1.07e-06,
        "meta_mean_motion_ddot": 0,
        "tle_line1": "1 35635U 09039A   25345.26013481  .00000107  00000+0  73614-4 0  9999",
        "tle_line2": "2 35635  82.9554 169.7667 0020478  77.7005  95.1833 13.89928314831296"
      },
      "geometry": {
        "type": "Point",
        "coordinates": [
          172.53161042616296,
          23.41701130371937
        ]
      }
    },
    {
      "type": "Feature",
      "properties": {
        "norad_id": 36519,
        "name": "COSMOS 2463",
        "group": "musson",
        "lat": 44.70637752787012,
        "lon": -159.51926709194126,
        "alt_km": 1013.3293959032071,
        "timestamp": "2025-12-11T15:53:39.812320+00:00",
        "meta_object_name": "COSMOS 2463",
        "meta_object_id": "2010-017A",
        "meta_epoch": "2025-12-11T05:01:54.171264",
        "meta_mean_motion": 13.71649038,
        "meta_eccentricity": 0.00348212,
        "meta_inclination": 82.9614,
        "meta_ra_of_asc_node": 27.8371,
        "meta_arg_of_pericenter": 292.4602,
        "meta_mean_anomaly": 128.7739,
        "meta_ephemeris_type": 0,
        "meta_classification_type": "U",
        "meta_norad_cat_id": 36519,
        "meta_element_set_no": 999,
        "meta_rev_at_epoch": 78216,
        "meta_bstar": 5.9274959e-05,
        "meta_mean_motion_dot": 6.8e-07,
        "meta_mean_motion_ddot": 0,
        "tle_line1": "1 36519U 10017A   25345.20965476  .00000068  00000+0  59275-4 0  9996",
        "tle_line2": "2 36519  82.9614  27.8371 0034821 292.4602 128.7739 13.71649038782160"
      },
      "geometry": {
        "type": "Point",
        "coordinates": [
          -159.51926709194126,
          44.70637752787012
        ]
      }
    }
  ]
}